0 FENGYUN 1C DEB
1 38516U 99025ETB 13284.29028014  .00000189  00000-0  82753-4 0   912
2 38516 098.6589 312.8515 0113893 330.1021 088.9161 14.31336143212399
0 FENGYUN 1C DEB
1 38516U 99025ETB 13288.91590399  .00000228  00000-0  96547-4 0   926
2 38516 098.6576 317.4642 0113718 316.3945 164.0024 14.31339116213055
0 FENGYUN 1C DEB
1 38516U 99025ETB 13290.30158829  .00000216  00000-0  92261-4 0   937
2 38516 098.6574 318.8456 0113687 312.2745 104.2327 14.31339973213254
0 FENGYUN 1C DEB
1 38516U 99025ETB 13293.30760595  .00000233  00000-0  98291-4 0   948
2 38516 098.6573 321.8424 0113618 303.3501 113.8057 14.31341555213689
0 FENGYUN 1C DEB
1 38516U 99025ETB 13294.92747837  .00000255  00000-0  10604-3 0   957
2 38516 098.6573 323.4572 0113592 298.5390 180.7830 14.31342409213910
